{"type": "FeatureCollection", "features": [ {"type": "Feature", "properties": {"norad_id": 33799, "name": "COSMOS 2251 DEB", "group": "cosmos-2251-debris", "lat": -48.6057708417826, "lon": -100.85127988688772, "alt_km": 640.3538806441647, "timestamp": "2025-12-23T16:57:12.747355+00:00", "meta": {"OBJECT_NAME": "COSMOS 2251 DEB", "OBJECT_ID": "1993-036AQ", "EPOCH": "2025-12-22T10:46:25.690944", "MEAN_MOTION": 14.79744929, "ECCENTRICITY": 0.00224679, "INCLINATION": 74.0318, "RA_OF_ASC_NODE": 62.6676, "ARG_OF_PERICENTER": 129.9441, "MEAN_ANOMALY": 245.0155, "EPHEMERIS_TYPE": 0, "CLASSIFICATION_TYPE": "U", "NORAD_CAT_ID": 33799, "ELEMENT_SET_NO": 999, "REV_AT_EPOCH": 88955, "BSTAR": 0.0013396152, "MEAN_MOTION_DOT": 0.00010098, "MEAN_MOTION_DDOT": 0}, "tle": {"line1": "1 33799U 93036AQ  25356.44890846  .00010098  00000+0  13396-2 0  9997", "line2": "2 33799  74.0318  62.6676 0022467 129.9441 245.0155 14.79744929889553"}}, "geometry": {"type": "Point", "coordinates": [-100.85127988688772, -48.6057708417826]}}, {"type": "Feature", "properties": {"norad_id": 33805, "name": "COSMOS 2251 DEB", "group": "cosmos-2251-debris", "lat": -43.65549180724194, "lon": 126.32437322489622, "alt_km": 720.3060092448968, "timestamp": "2025-12-23T16:57:12.747366+00:00", "meta": {"OBJECT_NAME": "COSMOS 2251 DEB", "OBJECT_ID": "1993-036AW", "EPOCH": "2025-12-22T20:09:50.222304", "MEAN_MOTION": 14.57876564, "ECCENTRICITY": 0.00599354, "INCLINATION": 74.0312, "RA_OF_ASC_NODE": 292.1161, "ARG_OF_PERICENTER": 118.1542, "MEAN_ANOMALY": 242.5696, "EPHEMERIS_TYPE": 0, "CLASSIFICATION_TYPE": "U", "NORAD_CAT_ID": 33805, "ELEMENT_SET_NO": 999, "REV_AT_EPOCH": 89374, "BSTAR": 0.00020045113, "MEAN_MOTION_DOT": 9.11e-06, "MEAN_MOTION_DDOT": 0}, "tle": {"line1": "1 33805U 93036AW  25356.84016461  .00000911  00000+0  20045-3 0  9995", "line2": "2 33805  74.0312 292.1161 0059935 118.1542 242.5696 14.57876564893741"}}, "geometry": {"type": "Point", "coordinates": [126.32437322489622, -43.65549180724194]}}, {"type": "Feature", "properties": {"norad_id": 33811, "name": "COSMOS 2251 DEB", "group": "cosmos-2251-debris", "lat": 9.979915916626197, "lon": 96.9818713658618, "alt_km": 572.2027138783988, "timestamp": "2025-12-23T16:57:12.747377+00:00", "meta": {"OBJECT_NAME": "COSMOS 2251 DEB", "OBJECT_ID": "1993-036BC", "EPOCH": "2025-12-23T05:42:16.287264", "MEAN_MOTION": 15.0556214, "ECCENTRICITY": 0.00309496, "INCLINATION": 73.8382, "RA_OF_ASC_NODE": 280.879, "ARG_OF_PERICENTER": 359.5399, "MEAN_ANOMALY": 150.5396, "EPHEMERIS_TYPE": 0, "CLASSIFICATION_TYPE": "U", "NORAD_CAT_ID": 33811, "ELEMENT_SET_NO": 999, "REV_AT_EPOCH": 90176, "BSTAR": 0.0011321525, "MEAN_MOTION_DOT": 0.00016483, "MEAN_MOTION_DDOT": 0}, "tle": {"line1": "1 33811U 93036BC  25357.23768851  .00016483  00000+0  11322-2 0  9991", "line2": "2 33811  73.8382 280.8790 0030949 359.5399 150.5396 15.05562140901762"}}, "geometry": {"type": "Point", "coordinates": [96.9818713658618, 9.979915916626197]}}, {"type": "Feature", "properties": {"norad_id": 33815, "name": "COSMOS 2251 DEB", "group": "cosmos-2251-debris", "lat": 65.37541041394267, "lon": -167.59596364098837, "alt_km": 496.9242024305677, "timestamp": "2025-12-23T16:57:12.747387+00:00", "meta": {"OBJECT_NAME": "COSMOS 2251 DEB", "OBJECT_ID": "1993-036BG", "EPOCH": "2025-12-22T20:38:53.560032", "MEAN_MOTION": 15.20664876, "ECCENTRICITY": 0.00025939, "INCLINATION": 73.9518, "RA_OF_ASC_NODE": 155.2836, "ARG_OF_PERICENTER": 323.9754, "MEAN_ANOMALY": 157.0749, "EPHEMERIS_TYPE": 0, "CLASSIFICATION_TYPE": "U", "NORAD_CAT_ID": 33815, "ELEMENT_SET_NO": 999, "REV_AT_EPOCH": 88524, "BSTAR": 0.0069341072, "MEAN_MOTION_DOT": 0.00155613, "MEAN_MOTION_DDOT": 0}, "tle": {"line1": "1 33815U 93036BG  25356.86034213  .00155613  00000+0  69341-2 0  9994", "line2": "2 33815  73.9518 155.2836 0002593 323.9754 157.0749 15.20664876885242"}}, "geometry": {"type": "Point", "coordinates": [-167.59596364098837, 65.37541041394267]}}, {"type": "Feature", "properties": {"norad_id": 33816, "name": "COSMOS 2251 DEB", "group": "cosmos-2251-debris", "lat": -72.5257510284846, "lon": -26.59539856451516, "alt_km": 1151.8692212908236, "timestamp": "2025-12-23T16:57:12.747398+00:00", "meta": {"OBJECT_NAME": "COSMOS 2251 DEB", "OBJECT_ID": "1993-036BH", "EPOCH": "2025-12-23T05:16:37.576704", "MEAN_MOTION": 13.81794576, "ECCENTRICITY": 0.02642006, "INCLINATION": 73.8952, "RA_OF_ASC_NODE": 87.6335, "ARG_OF_PERICENTER": 98.4905, "MEAN_ANOMALY": 264.6253, "EPHEMERIS_TYPE": 0, "CLASSIFICATION_TYPE": "U", "NORAD_CAT_ID": 33816, "ELEMENT_SET_NO": 999, "REV_AT_EPOCH": 84818, "BSTAR": 0.00033436169, "MEAN_MOTION_DOT": 4.45e-06, "MEAN_MOTION_DDOT": 0}, "tle": {"line1": "1 33816U 93036BH  25357.21987936  .00000445  00000+0  33436-3 0  9993", "line2": "2 33816  73.8952  87.6335 0264200  98.4905 264.6253 13.81794576848186"}}, "geometry": {"type": "Point", "coordinates": [-26.59539856451516, -72.5257510284846]}}, {"type": "Feature", "properties": {"norad_id": 33818, "name": "COSMOS 2251 DEB", "group": "cosmos-2251-debris", "lat": 56.90040085806033, "lon": 169.53162356848475, "alt_km": 513.3821515740747, "timestamp": "2025-12-23T16:57:12.747409+00:00", "meta": {"OBJECT_NAME": "COSMOS 2251 DEB", "OBJECT_ID": "1993-036BK", "EPOCH": "2025-12-23T02:55:38.153568", "MEAN_MOTION": 15.13308184, "ECCENTRICITY": 0.00246645, "INCLINATION": 74.0785, "RA_OF_ASC_NODE": 144.7703, "ARG_OF_PERICENTER": 128.7203, "MEAN_ANOMALY": 349.5955, "EPHEMERIS_TYPE": 0, "CLASSIFICATION_TYPE": "U", "NORAD_CAT_ID": 33818, "ELEMENT_SET_NO": 999, "REV_AT_EPOCH": 90019, "BSTAR": 0.002692601, "MEAN_MOTION_DOT": 0.00048599, "MEAN_MOTION_DDOT": 0}, "tle": {"line1": "1 33818U 93036BK  25357.12196937  .00048599  00000+0  26926-2 0  9995", "line2": "2 33818  74.0785 144.7703 0024664 128.7203 349.5955 15.13308184900190"}}, "geometry": {"type": "Point", "coordinates": [169.53162356848475, 56.90040085806033]}}, {"type": "Feature", "properties": {"norad_id": 33819, "name": "COSMOS 2251 DEB", "group": "cosmos-2251-debris", "lat": -58.48344927532214, "lon": 37.554705353656324, "alt_km": 853.0470978964922, "timestamp": "2025-12-23T16:57:12.747419+00:00", "meta": {"OBJECT_NAME": "COSMOS 2251 DEB", "OBJECT_ID": "1993-036BL", "EPOCH": "2025-12-23T06:20:16.154304", "MEAN_MOTION": 14.32255513, "ECCENTRICITY": 0.00894917, "INCLINATION": 74.1774, "RA_OF_ASC_NODE": 190.8086, "ARG_OF_PERICENTER": 48.9541, "MEAN_ANOMALY": 73.8897, "EPHEMERIS_TYPE": 0, "CLASSIFICATION_TYPE": "U", "NORAD_CAT_ID": 33819, "ELEMENT_SET_NO": 999, "REV_AT_EPOCH": 87646, "BSTAR": 0.00047861641, "MEAN_MOTION_DOT": 1.325e-05, "MEAN_MOTION_DDOT": 0}, "tle": {"line1": "1 33819U 93036BL  25357.26407586  .00001325  00000+0  47862-3 0  9995", "line2": "2 33819  74.1774 190.8086 0089491  48.9541  73.8897 14.32255513876464"}}, "geometry": {"type": "Point", "coordinates": [37.554705353656324, -58.48344927532214]}}, {"type": "Feature", "properties": {"norad_id": 33821, "name": "COSMOS 2251 DEB", "group": "cosmos-2251-debris", "lat": 3.765615974340513, "lon": 120.72163424164388, "alt_km": 518.1248831542734, "timestamp": "2025-12-23T16:57:12.747430+00:00", "meta": {"OBJECT_NAME": "COSMOS 2251 DEB", "OBJECT_ID": "1993-036BN", "EPOCH": "2025-12-23T07:29:43.605600", "MEAN_MOTION": 15.25946544, "ECCENTRICITY": 0.00497461, "INCLINATION": 74.0302, "RA_OF_ASC_NODE": 120.4752, "ARG_OF_PERICENTER": 150.3427, "MEAN_ANOMALY": 210.0612, "EPHEMERIS_TYPE": 0, "CLASSIFICATION_TYPE": "U", "NORAD_CAT_ID": 33821, "ELEMENT_SET_NO": 999, "REV_AT_EPOCH": 75162, "BSTAR": 0.0012476047, "MEAN_MOTION_DOT": 0.00033308, "MEAN_MOTION_DDOT": 0}, "tle": {"line1": "1 33821U 93036BN  25357.31231025  .00033308  00000+0  12476-2 0  9995", "line2": "2 33821  74.0302 120.4752 0049746 150.3427 210.0612 15.25946544751626"}}, "geometry": {"type": "Point", "coordinates": [120.72163424164388, 3.765615974340513]}}, {"type": "Feature", "properties": {"norad_id": 33822, "name": "COSMOS 2251 DEB", "group": "cosmos-2251-debris", "lat": 32.81974618563946, "lon": -175.06231987943067, "alt_km": 956.5360775101108, "timestamp": "2025-12-23T16:57:12.747441+00:00", "meta": {"OBJECT_NAME": "COSMOS 2251 DEB", "OBJECT_ID": "1993-036BP", "EPOCH": "2025-12-22T22:40:58.934784", "MEAN_MOTION": 14.13119133, "ECCENTRICITY": 0.0152769, "INCLINATION": 74.0676, "RA_OF_ASC_NODE": 175.6652, "ARG_OF_PERICENTER": 219.4908, "MEAN_ANOMALY": 263.5608, "EPHEMERIS_TYPE": 0, "CLASSIFICATION_TYPE": "U", "NORAD_CAT_ID": 33822, "ELEMENT_SET_NO": 999, "REV_AT_EPOCH": 86198, "BSTAR": 0.0014147, "MEAN_MOTION_DOT": 2.93e-05, "MEAN_MOTION_DDOT": 0}, "tle": {"line1": "1 33822U 93036BP  25356.94512656  .00002930  00000+0  14147-2 0  9990", "line2": "2 33822  74.0676 175.6652 0152769 219.4908 263.5608 14.13119133861984"}}, "geometry": {"type": "Point", "coordinates": [-175.06231987943067, 32.81974618563946]}}, {"type": "Feature", "properties": {"norad_id": 33823, "name": "COSMOS 2251 DEB", "group": "cosmos-2251-debris", "lat": 20.282868779642055, "lon": 136.2741351427863, "alt_km": 988.2234629252489, "timestamp": "2025-12-23T16:57:12.747451+00:00", "meta": {"OBJECT_NAME": "COSMOS 2251 DEB", "OBJECT_ID": "1993-036BQ", "EPOCH": "2025-12-23T03:59:36.915072", "MEAN_MOTION": 13.98975676, "ECCENTRICITY": 0.02094426, "INCLINATION": 73.8097, "RA_OF_ASC_NODE": 131.0565, "ARG_OF_PERICENTER": 254.5479, "MEAN_ANOMALY": 286.2374, "EPHEMERIS_TYPE": 0, "CLASSIFICATION_TYPE": "U", "NORAD_CAT_ID": 33823, "ELEMENT_SET_NO": 999, "REV_AT_EPOCH": 85755, "BSTAR": 0.00076417469, "MEAN_MOTION_DOT": 1.305e-05, "MEAN_MOTION_DDOT": 0}, "tle": {"line1": "1 33823U 93036BQ  25357.16639948  .00001305  00000+0  76417-3 0  9994", "line2": "2 33823  73.8097 131.0565 0209442 254.5479 286.2374 13.98975676857556"}}, "geometry": {"type": "Point", "coordinates": [136.2741351427863, 20.282868779642055]}}]}